*******************************************************************************
 Revised: Jun 17, 2016             Ariel  / (Uranus)                        701

 SATELLITE PHYSICAL PROPERTIES:
  Radius (km)           = 581.1x577.9x577.7 Density (g cm^-3)   = 1.67 +- 0.15
  Mass (10^20 kg )      =   13.53 +- 1.20   Geometric Albedo    =  0.34 
                                            V(1,0)              = +1.45

 SATELLITE ORBITAL DATA:
  Semi-major axis, a (km) = 191.2 (10^3)    Orbital period      = 2.520 d
  Eccentricity, e         =   0.0034        Rotational period   = Synchronous
  Inclination, i  (deg)   =   0.31
*******************************************************************************
 
 
*******************************************************************************
Ephemeris / WWW_USER Mon Jan 23 08:33:19 2017 Pasadena, USA      / Horizons    
*******************************************************************************
Target body name: Ariel (701)                     {source: ura111}
Center body name: Uranus (799)                    {source: ura111}
Center-site name: BODYCENTRIC
*******************************************************************************
Start time      : A.D. 2016-Nov-01 00:00:00.0000 UT      
Stop  time      : A.D. 2016-Dec-01 00:00:00.0000 UT      
Step-size       : 60 minutes
*******************************************************************************
Target pole/equ : IAU_ARIEL                       {East-longitude +}
Target radii    : 581.1 x 577.9 x 577.7 km        {Equator, meridian, pole}    
Center geodetic : 0.00000000,0.00000000,0.0000000 {E-lon(deg),Lat(deg),Alt(km)}
Center cylindric: 0.00000000,0.00000000,0.0000000 {E-lon(deg),Dxy(km),Dz(km)}
Center pole/equ : IAU_URANUS                      {East-longitude +}
Center radii    : 25559.0 x 25559.0 x 24973.0 km  {Equator, meridian, pole}    
Target primary  : Uranus
Vis. interferer : TITANIA (R_eq= 788.900) km      {source: ura111}
Rel. light bend : Sun, URANUS                     {source: ura111}
Rel. lght bnd GM: 1.3271E+11, 5.7940E+06 km^3/s^2                              
Atmos refraction: NO (AIRLESS)
RA format       : DEG
Time format     : CAL 
EOP file        : eop.170120.p170413                                           
EOP coverage    : DATA-BASED 1962-JAN-20 TO 2017-JAN-20. PREDICTS-> 2017-APR-12
Units conversion: 1 au= 149597870.700 km, c= 299792.458 km/s, 1 day= 86400.0 s 
Table cut-offs 1: Elevation (-90.0deg=NO ),Airmass     n.a.    , Daylight (NO )
Table cut-offs 2: Solar Elongation (  0.0,180.0=NO ),Local Hour Angle( 0.0=NO )
Table format    : Comma Separated Values (spreadsheet)
*******************************************************************************
 Date__(UT)__HR:MN:SS, , ,   ObsEcLon,   ObsEcLat,
**************************************************
$$SOE
 2016-Nov-01 00:00:00, , ,164.3873899, 22.7532196,
 2016-Nov-01 01:00:00, , ,163.4030605, 28.6363153,
 2016-Nov-01 02:00:00, , ,162.3013174, 34.5121239,
 2016-Nov-01 03:00:00, , ,161.0318044, 40.3772234,
 2016-Nov-01 04:00:00, , ,159.5194714, 46.2264799,
 2016-Nov-01 05:00:00, , ,157.6456647, 52.0517198,
 2016-Nov-01 06:00:00, , ,155.2097658, 57.8390012,
 2016-Nov-01 07:00:00, , ,151.8439451, 63.5624215,
 2016-Nov-01 08:00:00, , ,146.8018171, 69.1681941,
 2016-Nov-01 09:00:00, , ,138.3669785, 74.5266342,
 2016-Nov-01 10:00:00, , ,122.1105692, 79.2593175,
 2016-Nov-01 11:00:00, , , 89.0127560, 82.1384347,
 2016-Nov-01 12:00:00, , , 47.7388623, 81.1245492,
 2016-Nov-01 13:00:00, , , 23.8893122, 77.1047576,
 2016-Nov-01 14:00:00, , , 12.2479160, 71.9901245,
 2016-Nov-01 15:00:00, , ,  5.7671178, 66.4844231,
 2016-Nov-01 16:00:00, , ,  1.6639136, 60.8081521,
 2016-Nov-01 17:00:00, , ,358.8075734, 55.0444685,
 2016-Nov-01 18:00:00, , ,356.6745144, 49.2306720,
 2016-Nov-01 19:00:00, , ,354.9930064, 43.3858223,
 2016-Nov-01 20:00:00, , ,353.6086212, 37.5206713,
 2016-Nov-01 21:00:00, , ,352.4268923, 31.6417806,
 2016-Nov-01 22:00:00, , ,351.3862985, 25.7534280,
 2016-Nov-01 23:00:00, , ,350.4444231, 19.8585746,
 2016-Nov-02 00:00:00, , ,349.5703306, 13.9593918,
 2016-Nov-02 01:00:00, , ,348.7400693,  8.0575714,
 2016-Nov-02 02:00:00, , ,347.9338130,  2.1545203,
 2016-Nov-02 03:00:00, , ,347.1338662, -3.7485035,
 2016-Nov-02 04:00:00, , ,346.3230791, -9.6502838,
 2016-Nov-02 05:00:00, , ,345.4833661,-15.5495453,
 2016-Nov-02 06:00:00, , ,344.5940483,-21.4448414,
 2016-Nov-02 07:00:00, , ,343.6296880,-27.3344062,
 2016-Nov-02 08:00:00, , ,342.5569018,-33.2159356,
 2016-Nov-02 09:00:00, , ,341.3292440,-39.0862343,
 2016-Nov-02 10:00:00, , ,339.8783792,-44.9406027,
 2016-Nov-02 11:00:00, , ,338.0977690,-50.7716949,
 2016-Nov-02 12:00:00, , ,335.8101924,-56.5672157,
 2016-Nov-02 13:00:00, , ,332.6971626,-62.3048223,
 2016-Nov-02 14:00:00, , ,328.1285615,-67.9394139,
 2016-Nov-02 15:00:00, , ,320.6988263,-73.3663051,
 2016-Nov-02 16:00:00, , ,306.8512120,-78.2936528,
 2016-Nov-02 17:00:00, , ,278.2589746,-81.7703768,
 2016-Nov-02 18:00:00, , ,235.9305056,-81.7101279,
 2016-Nov-02 19:00:00, , ,207.8943969,-78.1678641,
 2016-Nov-02 20:00:00, , ,194.3186781,-73.2210888,
 2016-Nov-02 21:00:00, , ,187.0042659,-67.7898624,
 2016-Nov-02 22:00:00, , ,182.4913549,-62.1567952,
 2016-Nov-02 23:00:00, , ,179.4087544,-56.4237923,
 2016-Nov-03 00:00:00, , ,177.1394634,-50.6349094,
 2016-Nov-03 01:00:00, , ,175.3706728,-44.8119974,
 2016-Nov-03 02:00:00, , ,173.9279023,-38.9670611,
 2016-Nov-03 03:00:00, , ,172.7060588,-33.1072376,
 2016-Nov-03 04:00:00, , ,171.6376262,-27.2370518,
 2016-Nov-03 05:00:00, , ,170.6766524,-21.3595390,
 2016-Nov-03 06:00:00, , ,169.7900685,-15.4768487,
 2016-Nov-03 07:00:00, , ,168.9526481, -9.5905941,
 2016-Nov-03 08:00:00, , ,168.1438633, -3.7020685,
 2016-Nov-03 09:00:00, , ,167.3457446,  2.1876064,
 2016-Nov-03 10:00:00, , ,166.5412404,  8.0773674,
 2016-Nov-03 11:00:00, , ,165.7127482, 13.9661092,
 2016-Nov-03 12:00:00, , ,164.8405426, 19.8525751,
 2016-Nov-03 13:00:00, , ,163.9007945, 25.7352217,
 2016-Nov-03 14:00:00, , ,162.8627350, 31.6120225,
 2016-Nov-03 15:00:00, , ,161.6841948, 37.4801605,
 2016-Nov-03 16:00:00, , ,160.3040473, 43.3355035,
 2016-Nov-03 17:00:00, , ,158.6285030, 49.1716462,
 2016-Nov-03 18:00:00, , ,156.5043853, 54.9780227,
 2016-Nov-03 19:00:00, , ,153.6624886, 60.7358401,
 2016-Nov-03 20:00:00, , ,149.5848872, 66.4082877,
 2016-Nov-03 21:00:00, , ,143.1552071, 71.9133793,
 2016-Nov-03 22:00:00, , ,131.6309048, 77.0342449,
 2016-Nov-03 23:00:00, , ,108.0482626, 81.0799217,
 2016-Nov-04 00:00:00, , , 66.9171178, 82.1555335,
 2016-Nov-04 01:00:00, , , 33.5177351, 79.3206984,
 2016-Nov-04 02:00:00, , , 17.0798971, 74.6009712,
 2016-Nov-04 03:00:00, , ,  8.5695060, 69.2441985,
 2016-Nov-04 04:00:00, , ,  3.4921325, 63.6356453,
 2016-Nov-04 05:00:00, , ,  0.1075442, 57.9069892,
 2016-Nov-04 06:00:00, , ,357.6605434, 52.1127490,
 2016-Nov-04 07:00:00, , ,355.7796024, 46.2791799,
 2016-Nov-04 08:00:00, , ,354.2623606, 40.4204457,
 2016-Nov-04 09:00:00, , ,352.9892613, 34.5448930,
 2016-Nov-04 10:00:00, , ,351.8847471, 28.6578101,
 2016-Nov-04 11:00:00, , ,350.8981558, 22.7627667,
 2016-Nov-04 12:00:00, , ,349.9935580, 16.8623193,
 2016-Nov-04 13:00:00, , ,349.1439641, 10.9584098,
 2016-Nov-04 14:00:00, , ,348.3277800,  5.0526080,
 2016-Nov-04 15:00:00, , ,347.5264537, -0.8537288,
 2016-Nov-04 16:00:00, , ,346.7227302, -6.7593375,
 2016-Nov-04 17:00:00, , ,345.8991500,-12.6629477,
 2016-Nov-04 18:00:00, , ,345.0365119,-18.5631782,
 2016-Nov-04 19:00:00, , ,344.1120012,-24.4584092,
 2016-Nov-04 20:00:00, , ,343.0965819,-30.3466048,
 2016-Nov-04 21:00:00, , ,341.9509695,-36.2250362,
 2016-Nov-04 22:00:00, , ,340.6189172,-42.0898178,
 2016-Nov-04 23:00:00, , ,339.0152192,-47.9350708,
 2016-Nov-05 00:00:00, , ,337.0027047,-53.7513040,
 2016-Nov-05 01:00:00, , ,334.3444180,-59.5219946,
 2016-Nov-05 02:00:00, , ,330.5942033,-65.2155719,
 2016-Nov-05 03:00:00, , ,324.8160358,-70.7639244,
 2016-Nov-05 04:00:00, , ,314.7749015,-75.9942099,
 2016-Nov-05 05:00:00, , ,294.6850753,-80.3745921,
 2016-Nov-05 06:00:00, , ,256.4061189,-82.2891501,
 2016-Nov-05 07:00:00, , ,219.0438860,-80.1735860,
 2016-Nov-05 08:00:00, , ,199.7716148,-75.7199025,
 2016-Nov-05 09:00:00, , ,190.0734699,-70.4676144,
 2016-Nov-05 10:00:00, , ,184.4497556,-64.9140392,
 2016-Nov-05 11:00:00, , ,180.7790666,-59.2223557,
 2016-Nov-05 12:00:00, , ,178.1663860,-53.4574793,
 2016-Nov-05 13:00:00, , ,176.1822348,-47.6496763,
 2016-Nov-05 14:00:00, , ,174.5972967,-41.8148203,
 2016-Nov-05 15:00:00, , ,173.2782589,-35.9620112,
 2016-Nov-05 16:00:00, , ,172.1420225,-30.0968475,
 2016-Nov-05 17:00:00, , ,171.1335656,-24.2229852,
 2016-Nov-05 18:00:00, , ,170.2143541,-18.3429461,
 2016-Nov-05 19:00:00, , ,169.3558306,-12.4585701,
 2016-Nov-05 20:00:00, , ,168.5354980, -6.5712854,
 2016-Nov-05 21:00:00, , ,167.7343710, -0.6822840,
 2016-Nov-05 22:00:00, , ,166.9351411,  5.2073516,
 2016-Nov-05 23:00:00, , ,166.1206606, 11.0965443,
 2016-Nov-06 00:00:00, , ,165.2724549, 16.9841201,
 2016-Nov-06 01:00:00, , ,164.3689856, 22.8686891,
 2016-Nov-06 02:00:00, , ,163.3833020, 28.7484833,
 2016-Nov-06 03:00:00, , ,162.2795006, 34.6211131,
 2016-Nov-06 04:00:00, , ,161.0069320, 40.4831662,
 2016-Nov-06 05:00:00, , ,159.4900371, 46.3295006,
 2016-Nov-06 06:00:00, , ,157.6092363, 52.1519022,
 2016-Nov-06 07:00:00, , ,155.1621085, 57.9363229,
 2016-Nov-06 08:00:00, , ,151.7769859, 63.6566013,
 2016-Nov-06 09:00:00, , ,146.6983361, 69.2582790,
 2016-Nov-06 10:00:00, , ,138.1850579, 74.6096676,
 2016-Nov-06 11:00:00, , ,121.7405633, 79.3252753,
 2016-Nov-06 12:00:00, , , 88.3318453, 82.1564566,
 2016-Nov-06 13:00:00, , , 47.2084975, 81.0774994,
 2016-Nov-06 14:00:00, , , 23.6354404, 77.0289672,
 2016-Nov-06 15:00:00, , , 12.1147777, 71.9043359,
 2016-Nov-06 16:00:00, , ,  5.6864061, 66.3940303,
 2016-Nov-06 17:00:00, , ,  1.6092333, 60.7148375,
 2016-Nov-06 18:00:00, , ,358.7673587, 54.9487800,
 2016-Nov-06 19:00:00, , ,356.6430269, 49.1327484,
